{"fetched_at":"2026-07-08T07:04:13.613Z","source":"https://celestrak.org/NORAD/elements/gp.php?NAME=RADARSAT&FORMAT=JSON","constellation":"radarsat-2","records":[{"OBJECT_NAME":"RADARSAT-2","OBJECT_ID":"2007-061A","EPOCH":"2026-07-07T21:20:21.109344","CLASSIFICATION_TYPE":"U","MEAN_MOTION":14.29981271,"ECCENTRICITY":0.0001318,"INCLINATION":98.5784,"RA_OF_ASC_NODE":195.5256,"ARG_OF_PERICENTER":84.3014,"MEAN_ANOMALY":275.8319,"EPHEMERIS_TYPE":0,"NORAD_CAT_ID":32382,"ELEMENT_SET_NO":999,"REV_AT_EPOCH":96891,"BSTAR":-0.000070744,"MEAN_MOTION_DOT":-0.00000226,"MEAN_MOTION_DDOT":0}]}
